[{"OBJECT_NAME":"STARLINK-5938","OBJECT_ID":"2023-037AY","EPOCH":"2023-09-15T22:00:00.999936","MEAN_MOTION":15.4147748,"ECCENTRICITY":0.0003549,"INCLINATION":70.0008,"RA_OF_ASC_NODE":29.9861,"ARG_OF_PERICENTER":277.3082,"MEAN_ANOMALY":57.4883,"EPHEMERIS_TYPE":0,"CLASSIFICATION_TYPE":"U","NORAD_CAT_ID":55960,"ELEMENT_SET_NO":999,"REV_AT_EPOCH":2909,"BSTAR":-0.024609,"MEAN_MOTION_DOT":-0.00947483,"MEAN_MOTION_DDOT":0},{"OBJECT_NAME":"STARLINK-5933","OBJECT_ID":"2023-037AZ","EPOCH":"2023-09-15T22:00:00.999936","MEAN_MOTION":15.40829746,"ECCENTRICITY":0.0003553,"INCLINATION":70.0008,"RA_OF_ASC_NODE":30.0028,"ARG_OF_PERICENTER":278.6238,"MEAN_ANOMALY":41.6056,"EPHEMERIS_TYPE":0,"CLASSIFICATION_TYPE":"U","NORAD_CAT_ID":55961,"ELEMENT_SET_NO":999,"REV_AT_EPOCH":2909,"BSTAR":-0.025178,"MEAN_MOTION_DOT":-0.00948578,"MEAN_MOTION_DDOT":0},{"OBJECT_NAME":"STARLINK-5906","OBJECT_ID":"2023-037BA","EPOCH":"2023-09-15T22:00:00.999936","MEAN_MOTION":15.40454768,"ECCENTRICITY":0.0003525,"INCLINATION":70.0007,"RA_OF_ASC_NODE":30.0129,"ARG_OF_PERICENTER":277.2518,"MEAN_ANOMALY":33.9633,"EPHEMERIS_TYPE":0,"CLASSIFICATION_TYPE":"U","NORAD_CAT_ID":55962,"ELEMENT_SET_NO":999,"REV_AT_EPOCH":2909,"BSTAR":-0.025526,"MEAN_MOTION_DOT":-0.00949672,"MEAN_MOTION_DDOT":0},{"OBJECT_NAME":"STARLINK-5924","OBJECT_ID":"2023-037BB","EPOCH":"2023-09-15T22:00:00.999936","MEAN_MOTION":15.40132843,"ECCENTRICITY":0.0003502,"INCLINATION":70.0006,"RA_OF_ASC_NODE":30.0214,"ARG_OF_PERICENTER":278.781,"MEAN_ANOMALY":25.0825,"EPHEMERIS_TYPE":0,"CLASSIFICATION_TYPE":"U","NORAD_CAT_ID":55963,"ELEMENT_SET_NO":999,"REV_AT_EPOCH":2909,"BSTAR":-0.02587,"MEAN_MOTION_DOT":-0.00952032,"MEAN_MOTION_DDOT":0},{"OBJECT_NAME":"STARLINK-5895","OBJECT_ID":"2023-037BC","EPOCH":"2023-09-15T22:00:00.999936","MEAN_MOTION":15.49706251,"ECCENTRICITY":0.000351,"INCLINATION":70.0002,"RA_OF_ASC_NODE":29.6768,"ARG_OF_PERICENTER":276.8488,"MEAN_ANOMALY":326.634,"EPHEMERIS_TYPE":0,"CLASSIFICATION_TYPE":"U","NORAD_CAT_ID":55964,"ELEMENT_SET_NO":999,"REV_AT_EPOCH":2910,"BSTAR":-0.012361,"MEAN_MOTION_DOT":-0.00635555,"MEAN_MOTION_DDOT":0},{"OBJECT_NAME":"STARLINK-5894","OBJECT_ID":"2023-037BD","EPOCH":"2023-09-15T22:00:00.999936","MEAN_MOTION":15.41319025,"ECCENTRICITY":0.0003559,"INCLINATION":70.0008,"RA_OF_ASC_NODE":29.9904,"ARG_OF_PERICENTER":279.0576,"MEAN_ANOMALY":52.0226,"EPHEMERIS_TYPE":0,"CLASSIFICATION_TYPE":"U","NORAD_CAT_ID":55965,"ELEMENT_SET_NO":999,"REV_AT_EPOCH":2909,"BSTAR":-0.024748,"MEAN_MOTION_DOT":-0.00947781,"MEAN_MOTION_DDOT":0},{"OBJECT_NAME":"SES-18","OBJECT_ID":"2023-038A","EPOCH":"2023-09-15T13:07:31.599264","MEAN_MOTION":1.00272496,"ECCENTRICITY":0.0001733,"INCLINATION":0.0473,"RA_OF_ASC_NODE":261.9121,"ARG_OF_PERICENTER":313.5267,"MEAN_ANOMALY":232.6019,"EPHEMERIS_TYPE":0,"CLASSIFICATION_TYPE":"U","NORAD_CAT_ID":55970,"ELEMENT_SET_NO":999,"REV_AT_EPOCH":201,"BSTAR":0,"MEAN_MOTION_DOT":-1.01e-6,"MEAN_MOTION_DDOT":0},{"OBJECT_NAME":"SES-19","OBJECT_ID":"2023-038B","EPOCH":"2023-09-15T17:00:34.518240","MEAN_MOTION":1.00273618,"ECCENTRICITY":0.0001641,"INCLINATION":0.0542,"RA_OF_ASC_NODE":281.9949,"ARG_OF_PERICENTER":242.608,"MEAN_ANOMALY":310.0596,"EPHEMERIS_TYPE":0,"CLASSIFICATION_TYPE":"U","NORAD_CAT_ID":55971,"ELEMENT_SET_NO":999,"REV_AT_EPOCH":200,"BSTAR":0,"MEAN_MOTION_DOT":8.8e-7,"MEAN_MOTION_DDOT":0},{"OBJECT_NAME":"TIANMU-1 03","OBJECT_ID":"2023-039A","EPOCH":"2023-09-15T16:16:52.453632","MEAN_MOTION":15.20176071,"ECCENTRICITY":0.0013479,"INCLINATION":97.44,"RA_OF_ASC_NODE":46.4301,"ARG_OF_PERICENTER":359.3166,"MEAN_ANOMALY":0.8048,"EPHEMERIS_TYPE":0,"CLASSIFICATION_TYPE":"U","NORAD_CAT_ID":55973,"ELEMENT_SET_NO":999,"REV_AT_EPOCH":2692,"BSTAR":0.00032571,"MEAN_MOTION_DOT":7.0e-5,"MEAN_MOTION_DDOT":0},{"OBJECT_NAME":"TIANMU-1 04","OBJECT_ID":"2023-039B","EPOCH":"2023-09-15T15:52:02.210016","MEAN_MOTION":15.20186388,"ECCENTRICITY":0.0010309,"INCLINATION":97.4319,"RA_OF_ASC_NODE":46.2652,"ARG_OF_PERICENTER":0.8884,"MEAN_ANOMALY":359.2368,"EPHEMERIS_TYPE":0,"CLASSIFICATION_TYPE":"U","NORAD_CAT_ID":55974,"ELEMENT_SET_NO":999,"REV_AT_EPOCH":2691,"BSTAR":0.00032064,"MEAN_MOTION_DOT":6.885e-5,"MEAN_MOTION_DDOT":0},{"OBJECT_NAME":"TIANMU-1 05","OBJECT_ID":"2023-039C","EPOCH":"2023-09-15T17:03:42.090912","MEAN_MOTION":15.20174446,"ECCENTRICITY":0.000606,"INCLINATION":97.4367,"RA_OF_ASC_NODE":46.4636,"ARG_OF_PERICENTER":356.6912,"MEAN_ANOMALY":3.4281,"EPHEMERIS_TYPE":0,"CLASSIFICATION_TYPE":"U","NORAD_CAT_ID":55975,"ELEMENT_SET_NO":999,"REV_AT_EPOCH":2691,"BSTAR":0.00032868,"MEAN_MOTION_DOT":7.051e-5,"MEAN_MOTION_DDOT":0},{"OBJECT_NAME":"TIANMU-1 06","OBJECT_ID":"2023-039D","EPOCH":"2023-09-15T16:40:38.469216","MEAN_MOTION":15.2017342,"ECCENTRICITY":0.000553,"INCLINATION":97.4381,"RA_OF_ASC_NODE":46.5145,"ARG_OF_PERICENTER":359.814,"MEAN_ANOMALY":0.3092,"EPHEMERIS_TYPE":0,"CLASSIFICATION_TYPE":"U","NORAD_CAT_ID":55976,"ELEMENT_SET_NO":999,"REV_AT_EPOCH":2691,"BSTAR":0.00035985,"MEAN_MOTION_DOT":7.726e-5,"MEAN_MOTION_DDOT":0},{"OBJECT_NAME":"COSMOS 2567","OBJECT_ID":"2023-040A","EPOCH":"2023-09-15T17:49:23.584512","MEAN_MOTION":15.22960824,"ECCENTRICITY":0.0011027,"INCLINATION":97.6139,"RA_OF_ASC_NODE":155.5363,"ARG_OF_PERICENTER":59.5093,"MEAN_ANOMALY":300.7231,"EPHEMERIS_TYPE":0,"CLASSIFICATION_TYPE":"U","NORAD_CAT_ID":55978,"ELEMENT_SET_NO":999,"REV_AT_EPOCH":2686,"BSTAR":0.00021407,"MEAN_MOTION_DOT":4.962e-5,"MEAN_MOTION_DDOT":0},{"OBJECT_NAME":"GLOBAL-19","OBJECT_ID":"2023-041B","EPOCH":"2023-09-15T11:21:21.588192","MEAN_MOTION":15.40522848,"ECCENTRICITY":0.0008385,"INCLINATION":42.015,"RA_OF_ASC_NODE":309.5841,"ARG_OF_PERICENTER":8.9415,"MEAN_ANOMALY":351.1573,"EPHEMERIS_TYPE":0,"CLASSIFICATION_TYPE":"U","NORAD_CAT_ID":55982,"ELEMENT_SET_NO":999,"REV_AT_EPOCH":2701,"BSTAR":0.00051384,"MEAN_MOTION_DOT":0.00021155,"MEAN_MOTION_DDOT":0},{"OBJECT_NAME":"STARLINK-5905","OBJECT_ID":"2023-042A","EPOCH":"2023-09-15T12:18:31.597344","MEAN_MOTION":15.02536615,"ECCENTRICITY":8.74e-5,"INCLINATION":43.0024,"RA_OF_ASC_NODE":300.3902,"ARG_OF_PERICENTER":235.7732,"MEAN_ANOMALY":124.3028,"EPHEMERIS_TYPE":0,"CLASSIFICATION_TYPE":"U","NORAD_CAT_ID":55986,"ELEMENT_SET_NO":999,"REV_AT_EPOCH":2741,"BSTAR":0.00035423,"MEAN_MOTION_DOT":4.585e-5,"MEAN_MOTION_DDOT":0},{"OBJECT_NAME":"STARLINK-5915","OBJECT_ID":"2023-042B","EPOCH":"2023-09-15T05:30:02.668320","MEAN_MOTION":15.02530297,"ECCENTRICITY":0.0001199,"INCLINATION":43.0047,"RA_OF_ASC_NODE":301.6992,"ARG_OF_PERICENTER":270.5174,"MEAN_ANOMALY":89.553,"EPHEMERIS_TYPE":0,"CLASSIFICATION_TYPE":"U","NORAD_CAT_ID":55987,"ELEMENT_SET_NO":999,"REV_AT_EPOCH":2655,"BSTAR":2.7491e-5,"MEAN_MOTION_DOT":1.68e-6,"MEAN_MOTION_DDOT":0},{"OBJECT_NAME":"STARLINK-5916","OBJECT_ID":"2023-042C","EPOCH":"2023-09-15T12:10:32.191392","MEAN_MOTION":15.02535998,"ECCENTRICITY":8.59e-5,"INCLINATION":43.0037,"RA_OF_ASC_NODE":300.3445,"ARG_OF_PERICENTER":227.0127,"MEAN_ANOMALY":133.0643,"EPHEMERIS_TYPE":0,"CLASSIFICATION_TYPE":"U","NORAD_CAT_ID":55988,"ELEMENT_SET_NO":999,"REV_AT_EPOCH":2659,"BSTAR":0.00014028,"MEAN_MOTION_DOT":1.692e-5,"MEAN_MOTION_DDOT":0},{"OBJECT_NAME":"STARLINK-5947","OBJECT_ID":"2023-042D","EPOCH":"2023-09-15T12:02:31.896384","MEAN_MOTION":15.02544827,"ECCENTRICITY":9.5e-5,"INCLINATION":43.0037,"RA_OF_ASC_NODE":300.3036,"ARG_OF_PERICENTER":254.602,"MEAN_ANOMALY":105.4718,"EPHEMERIS_TYPE":0,"CLASSIFICATION_TYPE":"U","NORAD_CAT_ID":55989,"ELEMENT_SET_NO":999,"REV_AT_EPOCH":2659,"BSTAR":0.00019464,"MEAN_MOTION_DOT":2.427e-5,"MEAN_MOTION_DDOT":0},{"OBJECT_NAME":"STARLINK-5946","OBJECT_ID":"2023-042E","EPOCH":"2023-09-15T12:13:44.076288","MEAN_MOTION":15.02533389,"ECCENTRICITY":9.85e-5,"INCLINATION":43.0043,"RA_OF_ASC_NODE":300.3617,"ARG_OF_PERICENTER":283.4103,"MEAN_ANOMALY":76.6629,"EPHEMERIS_TYPE":0,"CLASSIFICATION_TYPE":"U","NORAD_CAT_ID":55990,"ELEMENT_SET_NO":999,"REV_AT_EPOCH":2659,"BSTAR":4.0968e-5,"MEAN_MOTION_DOT":3.5e-6,"MEAN_MOTION_DDOT":0},{"OBJECT_NAME":"STARLINK-5948","OBJECT_ID":"2023-042F","EPOCH":"2023-09-15T11:44:56.584320","MEAN_MOTION":15.02555372,"ECCENTRICITY":0.0001526,"INCLINATION":43.0039,"RA_OF_ASC_NODE":300.2127,"ARG_OF_PERICENTER":272.1681,"MEAN_ANOMALY":87.8987,"EPHEMERIS_TYPE":0,"CLASSIFICATION_TYPE":"U","NORAD_CAT_ID":55991,"ELEMENT_SET_NO":999,"REV_AT_EPOCH":2693,"BSTAR":-0.00061799,"MEAN_MOTION_DOT":-8.546e-5,"MEAN_MOTION_DDOT":0},{"OBJECT_NAME":"STARLINK-5962","OBJECT_ID":"2023-042G","EPOCH":"2023-09-15T11:54:33.155712","MEAN_MOTION":15.02548022,"ECCENTRICITY":0.0001394,"INCLINATION":43.0031,"RA_OF_ASC_NODE":300.2614,"ARG_OF_PERICENTER":258.6689,"MEAN_ANOMALY":101.3997,"EPHEMERIS_TYPE":0,"CLASSIFICATION_TYPE":"U","NORAD_CAT_ID":55992,"ELEMENT_SET_NO":999,"REV_AT_EPOCH":2659,"BSTAR":0.0011706,"MEAN_MOTION_DOT":0.0001565,"MEAN_MOTION_DDOT":0},{"OBJECT_NAME":"STARLINK-5969","OBJECT_ID":"2023-042H","EPOCH":"2023-09-15T12:05:44.872512","MEAN_MOTION":15.02533199,"ECCENTRICITY":0.0001264,"INCLINATION":43.0032,"RA_OF_ASC_NODE":300.3197,"ARG_OF_PERICENTER":284.5886,"MEAN_ANOMALY":75.4816,"EPHEMERIS_TYPE":0,"CLASSIFICATION_TYPE":"U","NORAD_CAT_ID":55993,"ELEMENT_SET_NO":999,"REV_AT_EPOCH":2659,"BSTAR":0.000518,"MEAN_MOTION_DOT":6.8e-5,"MEAN_MOTION_DDOT":0},{"OBJECT_NAME":"STARLINK-5956","OBJECT_ID":"2023-042J","EPOCH":"2023-09-15T05:26:50.911296","MEAN_MOTION":15.02530679,"ECCENTRICITY":0.0001558,"INCLINATION":43.0048,"RA_OF_ASC_NODE":301.6777,"ARG_OF_PERICENTER":232.6975,"MEAN_ANOMALY":127.3726,"EPHEMERIS_TYPE":0,"CLASSIFICATION_TYPE":"U","NORAD_CAT_ID":55994,"ELEMENT_SET_NO":999,"REV_AT_EPOCH":2655,"BSTAR":-6.7875e-5,"MEAN_MOTION_DOT":-1.12e-5,"MEAN_MOTION_DDOT":0},{"OBJECT_NAME":"STARLINK-5957","OBJECT_ID":"2023-042K","EPOCH":"2023-09-15T11:57:45.127008","MEAN_MOTION":15.02532364,"ECCENTRICITY":0.0001014,"INCLINATION":43.0039,"RA_OF_ASC_NODE":300.2767,"ARG_OF_PERICENTER":279.935,"MEAN_ANOMALY":80.1377,"EPHEMERIS_TYPE":0,"CLASSIFICATION_TYPE":"U","NORAD_CAT_ID":55995,"ELEMENT_SET_NO":999,"REV_AT_EPOCH":2659,"BSTAR":1.0468e-5,"MEAN_MOTION_DOT":-6.2e-7,"MEAN_MOTION_DDOT":0}]
